[
    {
        "Altitude(m)": 573760.5025944387,
        "Argument of Periapsis(deg)": -0.037671934638287344,
        "Eccentricity": 0.0,
        "Inclination(deg)": 97.0,
        "Latitude(deg)": -27.54891293564862,
        "Longitude(deg)": 19.723798858887253,
        "Mean Anomaly(deg)": -27.4763612180208,
        "RAAN(deg)": 120.00991175603085,
        "Satellite Name": "Starlink Shell 3 1860",
        "Satellite Number": 1860,
        "Semi-Major Axis(m)": 6938478.169268562,
        "Time(s)": 950
    },
    {
        "Altitude(m)": 573528.5097571729,
        "Argument of Periapsis(deg)": -0.03806848131869037,
        "Eccentricity": 0.0,
        "Inclination(deg)": 97.0,
        "Latitude(deg)": -26.928029097501216,
        "Longitude(deg)": 19.5860181456749,
        "Mean Anomaly(deg)": -26.85088502031579,
        "RAAN(deg)": 120.01001609030484,
        "Satellite Name": "Starlink Shell 3 1860",
        "Satellite Number": 1860,
        "Semi-Major Axis(m)": 6938478.169268562,
        "Time(s)": 960
    },
    {
        "Altitude(m)": 573298.6113355168,
        "Argument of Periapsis(deg)": -0.0384650279990934,
        "Eccentricity": 0.0,
        "Inclination(deg)": 97.0,
        "Latitude(deg)": -26.30699859533953,
        "Longitude(deg)": 19.449277220859905,
        "Mean Anomaly(deg)": -26.22540882261068,
        "RAAN(deg)": 120.01012042457887,
        "Satellite Name": "Starlink Shell 3 1860",
        "Satellite Number": 1860,
        "Semi-Major Axis(m)": 6938478.169268562,
        "Time(s)": 970
    },
    {
        "Altitude(m)": 573070.8916496659,
        "Argument of Periapsis(deg)": -0.03886157467949641,
        "Eccentricity": 0.0,
        "Inclination(deg)": 97.0,
        "Latitude(deg)": -25.685824816659245,
        "Longitude(deg)": 19.31353740968397,
        "Mean Anomaly(deg)": -25.599932624905673,
        "RAAN(deg)": 120.01022475885289,
        "Satellite Name": "Starlink Shell 3 1860",
        "Satellite Number": 1860,
        "Semi-Major Axis(m)": 6938478.169268562,
        "Time(s)": 980
    },
    {
        "Altitude(m)": 572845.4338646054,
        "Argument of Periapsis(deg)": -0.03925812135989944,
        "Eccentricity": 0.0,
        "Inclination(deg)": 97.0,
        "Latitude(deg)": -25.06451110686066,
        "Longitude(deg)": 19.178761797499416,
        "Mean Anomaly(deg)": -24.974456427200682,
        "RAAN(deg)": 120.01032909312688,
        "Satellite Name": "Starlink Shell 3 1860",
        "Satellite Number": 1860,
        "Semi-Major Axis(m)": 6938478.169268562,
        "Time(s)": 990
    }
]